OBJECT_NAME,OBJECT_ID,EPOCH,MEAN_MOTION,ECCENTRICITY,INCLINATION,RA_OF_ASC_NODE,ARG_OF_PERICENTER,MEAN_ANOMALY,EPHEMERIS_TYPE,CLASSIFICATION_TYPE,NORAD_CAT_ID,ELEMENT_SET_NO,REV_AT_EPOCH,BSTAR,MEAN_MOTION_DOT,MEAN_MOTION_DDOT
ONEWEB-0311,2021-075Y,2026-07-13T10:41:42.235872,13.17648151,.0001762,87.9141,0.6385,78.6973,281.4357,0,U,49097,999,23708,.18626E-3,.85E-6,0
ONEWEB-0312,2021-075Z,2026-07-13T11:03:34.994016,13.17648390,.0002057,87.9141,0.6462,85.9027,274.2339,0,U,49098,999,23706,.69871E-4,.4E-6,0
ONEWEB-0313,2021-075AA,2026-07-13T11:10:39.727776,13.17650223,.0001834,87.9137,0.6494,88.4718,271.6623,0,U,49099,999,23705,.119E-3,.59E-6,0
ONEWEB-0314,2021-075AB,2026-07-13T12:11:36.516192,13.17650335,.000206,87.9151,0.6171,82.9922,277.1444,0,U,49100,999,23703,-.13439E-3,-.39E-6,0
ONEWEB-0315,2021-075AC,2026-07-13T10:25:05.503872,13.12441215,.0001602,87.8967,345.4262,86.5445,273.5867,0,U,49101,999,23861,-.53882E-3,-.181E-5,0
ONEWEB-0316,2021-075AD,2026-07-13T09:53:35.808864,13.18686278,.0001991,87.9188,330.2404,98.3298,261.8059,0,U,49102,999,24066,.20973E-3,.96E-6,0
ONEWEB-0317,2021-075AE,2026-07-13T10:29:58.182144,13.12442023,.0002422,87.8963,345.4491,108.8708,251.2683,0,U,49103,999,23863,-.67181E-3,-.229E-5,0
ONEWEB-0318,2021-075AF,2026-07-13T09:48:32.671008,13.18686309,.0001788,87.9193,330.2429,92.8860,267.2476,0,U,49104,999,24062,-.42326E-5,.11E-6,0
ONEWEB-0319,2021-075AG,2026-07-13T10:44:07.844928,13.17648103,.0001575,87.9143,0.6432,77.8754,282.2554,0,U,49105,999,23706,.10101E-3,.52E-6,0
ONEWEB-0323,2021-075AH,2026-07-13T10:03:08.699616,13.12441912,.0001688,87.8969,345.4337,76.9039,283.2277,0,U,49106,999,23799,.97987E-3,.365E-5,0
ONEWEB-0329,2021-075AJ,2026-07-13T10:56:16.349856,13.17650412,.0001943,87.9146,0.6426,87.6126,272.5228,0,U,49107,999,23704,-.45365E-4,-.5E-7,0
ONEWEB-0330,2021-075AK,2026-07-13T11:01:19.014240,13.17646885,.0002009,87.9143,0.6528,89.1953,270.9409,0,U,49108,999,23708,.20154E-3,.91E-6,0
ONEWEB-0292,2021-083A,2026-07-13T08:53:43.658016,13.13470832,.0001867,87.8969,315.0277,96.6519,263.4822,0,U,49186,999,23436,-.4934E-3,-.167E-5,0
ONEWEB-0303,2021-083B,2026-07-13T09:43:40.093824,13.18684153,.0001801,87.9192,330.2420,93.3773,266.7565,0,U,49187,999,23343,.71117E-4,.41E-6,0
ONEWEB-0306,2021-083C,2026-07-13T09:29:06.899136,13.18685012,.0002084,87.9198,330.2333,101.1242,259.0124,0,U,49188,999,23347,.16465E-3,.78E-6,0
ONEWEB-0307,2021-083D,2026-07-13T08:45:10.929312,13.13469671,.0001961,87.8971,315.0262,95.8643,264.2710,0,U,49189,999,23436,-.11864E-2,-.42E-5,0
ONEWEB-0320,2021-083E,2026-07-13T09:58:14.267424,13.18687257,.000192,87.9184,330.2447,99.0703,261.0646,0,U,49190,999,23343,.38723E-4,.28E-6,0
ONEWEB-0321,2021-083F,2026-07-13T04:27:17.777952,13.20772000,.00020219,87.9189,269.2544,104.2946,255.8412,0,U,49191,999,24026,-.54402044E-4,-.9E-7,0
ONEWEB-0322,2021-083G,2026-07-13T08:39:06.703200,13.13470067,.0002015,87.8976,315.0260,114.2056,245.9284,0,U,49192,999,23435,-.91856E-3,-.323E-5,0
ONEWEB-0324,2021-083H,2026-07-13T09:19:24.717792,13.18686917,.0002067,87.9197,330.2401,94.8071,265.3297,0,U,49193,999,23345,.39158E-4,.28E-6,0
ONEWEB-0325,2021-083J,2026-07-13T09:24:15.344064,13.18687938,.0001849,87.9186,330.2450,100.2116,259.9225,0,U,49194,999,23346,-.31733E-4,0,0
ONEWEB-0326,2021-083K,2026-07-13T09:46:19.964928,13.18686016,.0001665,87.9193,330.2420,91.9027,268.2296,0,U,49195,999,23345,.10241E-5,.13E-6,0
ONEWEB-0327,2021-083L,2026-07-13T09:45:55.779840,13.18685540,.0001489,87.9183,330.2438,92.1476,267.9827,0,U,49196,999,23347,-.11074E-3,-.31E-6,0
ONEWEB-0328,2021-083M,2026-07-13T08:24:29.064096,13.13469949,.0002067,87.8984,315.0045,99.1614,260.9749,0,U,49197,999,23433,-.32534E-3,-.106E-5,0
ONEWEB-0331,2021-083N,2026-07-13T09:36:23.855040,13.18685045,.000175,87.9196,330.2376,87.2964,272.8369,0,U,49198,999,23346,.11453E-3,.58E-6,0
ONEWEB-0333,2021-083P,2026-07-13T08:17:10.344768,13.13469485,.0001877,87.8978,315.0289,100.4096,259.7245,0,U,49199,999,23434,.52768E-5,.15E-6,0
ONEWEB-0334,2021-083Q,2026-07-13T04:47:52.641312,13.20769275,.00023518,87.9191,269.2610,117.0714,243.0660,0,U,49200,999,24022,.62984431E-4,.39E-6,0
ONEWEB-0335,2021-083R,2026-07-13T08:09:51.283296,13.13466420,.0001783,87.8974,315.0270,94.9990,265.1342,0,U,49201,999,23435,.79355E-3,.303E-5,0
ONEWEB-0336,2021-083S,2026-07-13T09:18:06.531840,13.13469072,.0001861,87.8973,315.0128,90.7244,269.4098,0,U,49202,999,23435,.29987E-3,.122E-5,0
ONEWEB-0337,2021-083T,2026-07-13T09:32:33.230976,13.13469344,.0002057,87.8972,315.0164,95.3835,264.7529,0,U,49203,999,23435,.77209E-3,.295E-5,0
ONEWEB-0338,2021-083U,2026-07-13T04:15:09.483840,13.20770580,.0002046,87.9198,269.2661,107.9472,252.1885,0,U,49204,999,24024,-.83322421E-4,-.21E-6,0
