ONEWEB-0311             
1 49097U 21075Y   26194.44562773  .00000085  00000+0  18626-3 0  9992
2 49097  87.9141   0.6385 0001762  78.6973 281.4357 13.17648151237086
ONEWEB-0312             
1 49098U 21075Z   26194.46082169  .00000040  00000+0  69871-4 0  9991
2 49098  87.9141   0.6462 0002057  85.9027 274.2339 13.17648390237065
ONEWEB-0313             
1 49099U 21075AA  26194.46573759  .00000059  00000+0  11900-3 0  9991
2 49099  87.9137   0.6494 0001834  88.4718 271.6623 13.17650223237057
ONEWEB-0314             
1 49100U 21075AB  26194.50806153 -.00000039  00000+0 -13439-3 0  9995
2 49100  87.9151   0.6171 0002060  82.9922 277.1444 13.17650335237030
ONEWEB-0315             
1 49101U 21075AC  26194.43409148 -.00000181  00000+0 -53882-3 0  9995
2 49101  87.8967 345.4262 0001602  86.5445 273.5867 13.12441215238611
ONEWEB-0316             
1 49102U 21075AD  26194.41222001  .00000096  00000+0  20973-3 0  9993
2 49102  87.9188 330.2404 0001991  98.3298 261.8059 13.18686278240663
ONEWEB-0317             
1 49103U 21075AE  26194.43747896 -.00000229  00000+0 -67181-3 0  9992
2 49103  87.8963 345.4491 0002422 108.8708 251.2683 13.12442023238633
ONEWEB-0318             
1 49104U 21075AF  26194.40871147  .00000011  00000+0 -42326-5 0  9991
2 49104  87.9193 330.2429 0001788  92.8860 267.2476 13.18686309240620
ONEWEB-0319             
1 49105U 21075AG  26194.44731302  .00000052  00000+0  10101-3 0  9992
2 49105  87.9143   0.6432 0001575  77.8754 282.2554 13.17648103237064
ONEWEB-0323             
1 49106U 21075AH  26194.41885069  .00000365  00000+0  97987-3 0  9994
2 49106  87.8969 345.4337 0001688  76.9039 283.2277 13.12441912237994
ONEWEB-0329             
1 49107U 21075AJ  26194.45574479 -.00000005  00000+0 -45365-4 0  9996
2 49107  87.9146   0.6426 0001943  87.6126 272.5228 13.17650412237047
ONEWEB-0330             
1 49108U 21075AK  26194.45924785  .00000091  00000+0  20154-3 0  9997
2 49108  87.9143   0.6528 0002009  89.1953 270.9409 13.17646885237083
ONEWEB-0292             
1 49186U 21083A   26194.37064419 -.00000167  00000+0 -49340-3 0  9996
2 49186  87.8969 315.0277 0001867  96.6519 263.4822 13.13470832234367
ONEWEB-0303             
1 49187U 21083B   26194.40532516  .00000041  00000+0  71117-4 0  9996
2 49187  87.9192 330.2420 0001801  93.3773 266.7565 13.18684153233435
ONEWEB-0306             
1 49188U 21083C   26194.39521874  .00000078  00000+0  16465-3 0  9994
2 49188  87.9198 330.2333 0002084 101.1242 259.0124 13.18685012233473
ONEWEB-0307             
1 49189U 21083D   26194.36470983 -.00000420  00000+0 -11864-2 0  9996
2 49189  87.8971 315.0262 0001961  95.8643 264.2710 13.13469671234365
ONEWEB-0320             
1 49190U 21083E   26194.41544291  .00000028  00000+0  38723-4 0  9995
2 49190  87.9184 330.2447 0001920  99.0703 261.0646 13.18687257233433
ONEWEB-0321             
1 49191U 21083F   26194.18562243 -.00000009  00000+0 -54402-4 0  9990
2 49191  87.9189 269.2544 0002021 104.2946 255.8412 13.20772000240264
ONEWEB-0322             
1 49192U 21083G   26194.36049425 -.00000323  00000+0 -91856-3 0  9995
2 49192  87.8976 315.0260 0002015 114.2056 245.9284 13.13470067234359
ONEWEB-0324             
1 49193U 21083H   26194.38848053  .00000028  00000+0  39158-4 0  9990
2 49193  87.9197 330.2401 0002067  94.8071 265.3297 13.18686917233457
ONEWEB-0325             
1 49194U 21083J   26194.39184426  .00000000  00000+0 -31733-4 0  9991
2 49194  87.9186 330.2450 0001849 100.2116 259.9225 13.18687938233464
ONEWEB-0326             
1 49195U 21083K   26194.40717552  .00000013  00000+0  10241-5 0  9991
2 49195  87.9193 330.2420 0001665  91.9027 268.2296 13.18686016233459
ONEWEB-0327             
1 49196U 21083L   26194.40689560 -.00000031  00000+0 -11074-3 0  9994
2 49196  87.9183 330.2438 0001489  92.1476 267.9827 13.18685540233472
ONEWEB-0328             
1 49197U 21083M   26194.35033639 -.00000106  00000+0 -32534-3 0  9996
2 49197  87.8984 315.0045 0002067  99.1614 260.9749 13.13469949234330
ONEWEB-0331             
1 49198U 21083N   26194.40027610  .00000058  00000+0  11453-3 0  9996
2 49198  87.9196 330.2376 0001750  87.2964 272.8369 13.18685045233462
ONEWEB-0333             
1 49199U 21083P   26194.34525862  .00000015  00000+0  52768-5 0  9991
2 49199  87.8978 315.0289 0001877 100.4096 259.7245 13.13469485234346
ONEWEB-0334             
1 49200U 21083Q   26194.19991483  .00000039  00000+0  62984-4 0  9999
2 49200  87.9191 269.2610 0002351 117.0714 243.0660 13.20769275240223
ONEWEB-0335             
1 49201U 21083R   26194.34017689  .00000303  00000+0  79355-3 0  9997
2 49201  87.8974 315.0270 0001783  94.9990 265.1342 13.13466420234358
ONEWEB-0336             
1 49202U 21083S   26194.38757560  .00000122  00000+0  29987-3 0  9996
2 49202  87.8973 315.0128 0001861  90.7244 269.4098 13.13469072234354
ONEWEB-0337             
1 49203U 21083T   26194.39760684  .00000295  00000+0  77209-3 0  9990
2 49203  87.8972 315.0164 0002057  95.3835 264.7529 13.13469344234358
ONEWEB-0338             
1 49204U 21083U   26194.17719310 -.00000021  00000+0 -83322-4 0  9990
2 49204  87.9198 269.2661 0002046 107.9472 252.1885 13.20770580240243
